{
  "type": "FeatureCollection",
  "features": [
    {
      "type": "Feature",
      "properties": {
        "norad_id": 34582,
        "name": "COSMOS 2251 DEB",
        "group": "cosmos-2251-debris",
        "lat": -8.625007598907095,
        "lon": -72.69868691348944,
        "alt_km": 730.1692344929406,
        "timestamp": "2025-12-03T08:58:46.397604+00:00",
        "meta_object_name": "COSMOS 2251 DEB",
        "meta_object_id": "1993-036VU",
        "meta_epoch": "2025-12-03T04:01:47.947584",
        "meta_mean_motion": 14.43241322,
        "meta_eccentricity": 0.0047336,
        "meta_inclination": 74.0193,
        "meta_ra_of_asc_node": 290.1759,
        "meta_arg_of_pericenter": 42.6204,
        "meta_mean_anomaly": 317.8609,
        "meta_ephemeris_type": 0,
        "meta_classification_type": "U",
        "meta_norad_cat_id": 34582,
        "meta_element_set_no": 999,
        "meta_rev_at_epoch": 87809,
        "meta_bstar": 0.001102,
        "meta_mean_motion_dot": 3.734e-05,
        "meta_mean_motion_ddot": 0,
        "tle_line1": "1 34582U 93036VU  25337.16791606  .00003734  00000+0  11020-2 0  9991",
        "tle_line2": "2 34582  74.0193 290.1759 0047336  42.6204 317.8609 14.43241322878094"
      },
      "geometry": {
        "type": "Point",
        "coordinates": [
          -72.69868691348944,
          -8.625007598907095
        ]
      }
    },
    {
      "type": "Feature",
      "properties": {
        "norad_id": 34588,
        "name": "COSMOS 2251 DEB",
        "group": "cosmos-2251-debris",
        "lat": 74.03291378994892,
        "lon": 15.740120700573186,
        "alt_km": 749.3305712252113,
        "timestamp": "2025-12-03T08:58:46.397615+00:00",
        "meta_object_name": "COSMOS 2251 DEB",
        "meta_object_id": "1993-036WA",
        "meta_epoch": "2025-12-02T22:51:24.277248",
        "meta_mean_motion": 14.41968061,
        "meta_eccentricity": 0.0018874,
        "meta_inclination": 74.0428,
        "meta_ra_of_asc_node": 286.3902,
        "meta_arg_of_pericenter": 340.1229,
        "meta_mean_anomaly": 81.0797,
        "meta_ephemeris_type": 0,
        "meta_classification_type": "U",
        "meta_norad_cat_id": 34588,
        "meta_element_set_no": 999,
        "meta_rev_at_epoch": 87809,
        "meta_bstar": 0.00065891,
        "meta_mean_motion_dot": 2.139e-05,
        "meta_mean_motion_ddot": 0,
        "tle_line1": "1 34588U 93036WA  25336.95236432  .00002139  00000+0  65891-3 0  9998",
        "tle_line2": "2 34588  74.0428 286.3902 0018874 340.1229  81.0797 14.41968061878098"
      },
      "geometry": {
        "type": "Point",
        "coordinates": [
          15.740120700573186,
          74.03291378994892
        ]
      }
    },
    {
      "type": "Feature",
      "properties": {
        "norad_id": 34589,
        "name": "COSMOS 2251 DEB",
        "group": "cosmos-2251-debris",
        "lat": 17.03647936164845,
        "lon": 77.05876537343724,
        "alt_km": 758.4540001103978,
        "timestamp": "2025-12-03T08:58:46.397626+00:00",
        "meta_object_name": "COSMOS 2251 DEB",
        "meta_object_id": "1993-036WB",
        "meta_epoch": "2025-12-02T00:51:37.569600",
        "meta_mean_motion": 13.86041103,
        "meta_eccentricity": 0.02515608,
        "meta_inclination": 73.9251,
        "meta_ra_of_asc_node": 74.2692,
        "meta_arg_of_pericenter": 19.7326,
        "meta_mean_anomaly": 162.8707,
        "meta_ephemeris_type": 0,
        "meta_classification_type": "U",
        "meta_norad_cat_id": 34589,
        "meta_element_set_no": 999,
        "meta_rev_at_epoch": 84563,
        "meta_bstar": 0.00029049986,
        "meta_mean_motion_dot": 4.05e-06,
        "meta_mean_motion_ddot": 0,
        "tle_line1": "1 34589U 93036WB  25336.03585150  .00000405  00000+0  29050-3 0  9993",
        "tle_line2": "2 34589  73.9251  74.2692 0251560  19.7326 162.8707 13.86041103845639"
      },
      "geometry": {
        "type": "Point",
        "coordinates": [
          77.05876537343724,
          17.03647936164845
        ]
      }
    },
    {
      "type": "Feature",
      "properties": {
        "norad_id": 34590,
        "name": "COSMOS 2251 DEB",
        "group": "cosmos-2251-debris",
        "lat": -25.762242791917313,
        "lon": 168.20555295319033,
        "alt_km": 718.428363736326,
        "timestamp": "2025-12-03T08:58:46.397636+00:00",
        "meta_object_name": "COSMOS 2251 DEB",
        "meta_object_id": "1993-036WC",
        "meta_epoch": "2025-12-02T11:17:38.314176",
        "meta_mean_motion": 14.54806792,
        "meta_eccentricity": 0.00680687,
        "meta_inclination": 74.0436,
        "meta_ra_of_asc_node": 341.9774,
        "meta_arg_of_pericenter": 114.5858,
        "meta_mean_anomaly": 41.0911,
        "meta_ephemeris_type": 0,
        "meta_classification_type": "U",
        "meta_norad_cat_id": 34590,
        "meta_element_set_no": 999,
        "meta_rev_at_epoch": 88971,
        "meta_bstar": 0.00016114285,
        "meta_mean_motion_dot": 6.83e-06,
        "meta_mean_motion_ddot": 0,
        "tle_line1": "1 34590U 93036WC  25336.47058234  .00000683  00000+0  16114-3 0  9996",
        "tle_line2": "2 34590  74.0436 341.9774 0068068 114.5858  41.0911 14.54806792889717"
      },
      "geometry": {
        "type": "Point",
        "coordinates": [
          168.20555295319033,
          -25.762242791917313
        ]
      }
    },
    {
      "type": "Feature",
      "properties": {
        "norad_id": 34609,
        "name": "COSMOS 2251 DEB",
        "group": "cosmos-2251-debris",
        "lat": 8.348470580696222,
        "lon": 126.29383259115392,
        "alt_km": 725.565989330521,
        "timestamp": "2025-12-03T08:58:46.397646+00:00",
        "meta_object_name": "COSMOS 2251 DEB",
        "meta_object_id": "1993-036WE",
        "meta_epoch": "2025-12-03T04:42:46.226304",
        "meta_mean_motion": 14.21736587,
        "meta_eccentricity": 0.0144601,
        "meta_inclination": 73.7313,
        "meta_ra_of_asc_node": 124.1626,
        "meta_arg_of_pericenter": 345.1689,
        "meta_mean_anomaly": 193.4068,
        "meta_ephemeris_type": 0,
        "meta_classification_type": "U",
        "meta_norad_cat_id": 34609,
        "meta_element_set_no": 999,
        "meta_rev_at_epoch": 86496,
        "meta_bstar": 0.00088348,
        "meta_mean_motion_dot": 2.133e-05,
        "meta_mean_motion_ddot": 0,
        "tle_line1": "1 34609U 93036WE  25337.19636836  .00002133  00000+0  88348-3 0  9997",
        "tle_line2": "2 34609  73.7313 124.1626 0144601 345.1689 193.4068 14.21736587864960"
      },
      "geometry": {
        "type": "Point",
        "coordinates": [
          126.29383259115392,
          8.348470580696222
        ]
      }
    },
    {
      "type": "Feature",
      "properties": {
        "norad_id": 34610,
        "name": "COSMOS 2251 DEB",
        "group": "cosmos-2251-debris",
        "lat": -47.99055586881931,
        "lon": -99.81105076407721,
        "alt_km": 901.0487954706532,
        "timestamp": "2025-12-03T08:58:46.397688+00:00",
        "meta_object_name": "COSMOS 2251 DEB",
        "meta_object_id": "1993-036WF",
        "meta_epoch": "2025-12-03T04:05:53.469600",
        "meta_mean_motion": 14.06934938,
        "meta_eccentricity": 0.0180017,
        "meta_inclination": 74.0188,
        "meta_ra_of_asc_node": 279.0973,
        "meta_arg_of_pericenter": 51.7904,
        "meta_mean_anomaly": 309.9287,
        "meta_ephemeris_type": 0,
        "meta_classification_type": "U",
        "meta_norad_cat_id": 34610,
        "meta_element_set_no": 999,
        "meta_rev_at_epoch": 85425,
        "meta_bstar": 0.002986,
        "meta_mean_motion_dot": 5.75e-05,
        "meta_mean_motion_ddot": 0,
        "tle_line1": "1 34610U 93036WF  25337.17075775  .00005750  00000+0  29860-2 0  9997",
        "tle_line2": "2 34610  74.0188 279.0973 0180017  51.7904 309.9287 14.06934938854253"
      },
      "geometry": {
        "type": "Point",
        "coordinates": [
          -99.81105076407721,
          -47.99055586881931
        ]
      }
    },
    {
      "type": "Feature",
      "properties": {
        "norad_id": 34611,
        "name": "COSMOS 2251 DEB",
        "group": "cosmos-2251-debris",
        "lat": 61.02937677237139,
        "lon": 150.1836097874775,
        "alt_km": 659.8085972446215,
        "timestamp": "2025-12-03T08:58:46.397705+00:00",
        "meta_object_name": "COSMOS 2251 DEB",
        "meta_object_id": "1993-036WG",
        "meta_epoch": "2025-12-02T16:24:15.257088",
        "meta_mean_motion": 14.69161459,
        "meta_eccentricity": 0.0024047,
        "meta_inclination": 74.0521,
        "meta_ra_of_asc_node": 120.4215,
        "meta_arg_of_pericenter": 165.3295,
        "meta_mean_anomaly": 209.2062,
        "meta_ephemeris_type": 0,
        "meta_classification_type": "U",
        "meta_norad_cat_id": 34611,
        "meta_element_set_no": 999,
        "meta_rev_at_epoch": 88243,
        "meta_bstar": 0.0020752,
        "meta_mean_motion_dot": 0.00012256,
        "meta_mean_motion_ddot": 0,
        "tle_line1": "1 34611U 93036WG  25336.68350992  .00012256  00000+0  20752-2 0  9990",
        "tle_line2": "2 34611  74.0521 120.4215 0024047 165.3295 209.2062 14.69161459882431"
      },
      "geometry": {
        "type": "Point",
        "coordinates": [
          150.1836097874775,
          61.02937677237139
        ]
      }
    }
  ]
}